[{"OBJECT_NAME":"NUSTAR","OBJECT_ID":"2012-031A","EPOCH":"2026-03-10T00:00:02.999808","MEAN_MOTION":15.07728841,"ECCENTRICITY":0.00071224,"INCLINATION":6.0266,"RA_OF_ASC_NODE":57.5732,"ARG_OF_PERICENTER":70.6924,"MEAN_ANOMALY":331.0724,"EPHEMERIS_TYPE":0,"CLASSIFICATION_TYPE":"U","NORAD_CAT_ID":38358,"ELEMENT_SET_NO":999,"REV_AT_EPOCH":130,"BSTAR":0.0011080621,"MEAN_MOTION_DOT":0.00018332,"MEAN_MOTION_DDOT":0},{"OBJECT_NAME":"STARLINK-3191","OBJECT_ID":"2021-115AY","EPOCH":"2026-03-09T11:18:08.673408","MEAN_MOTION":15.0883744,"ECCENTRICITY":0.00013589,"INCLINATION":53.2176,"RA_OF_ASC_NODE":140.1532,"ARG_OF_PERICENTER":89.6849,"MEAN_ANOMALY":270.4299,"EPHEMERIS_TYPE":0,"CLASSIFICATION_TYPE":"U","NORAD_CAT_ID":49770,"ELEMENT_SET_NO":999,"REV_AT_EPOCH":23676,"BSTAR":-1.9204854e-5,"MEAN_MOTION_DOT":-5.94e-6,"MEAN_MOTION_DDOT":0}]
